EUTELSAT 80A            
1 26369U 00028A   21086.52680351  .00000117  00000-0  00000-0 0  9992
2 26369   4.0409  79.1302 0004937 287.5377  56.3983  1.00270221 76304
TDRS 8                  
1 26388U 00034A   21086.39137084 -.00000233  00000-0  00000-0 0  9995
2 26388   9.6705  45.5996 0022981 328.6297  40.7153  1.00279053 76058
NAVSTAR 48 (USA 151)    
1 26407U 00040A   21086.49832837  .00000018  00000-0  00000-0 0  9993
2 26407  55.7829 290.9825 0179889 282.7723 282.3735  2.00564443151684
CLUSTER II-FM7 (SAMBA)  
1 26410U 00041A   21088.32310074  .00000099  00000-0  00000+0 0  9994
2 26410 132.5583 343.8607 4782648 190.2850   0.4253  0.44203390 23607
CLUSTER II-FM6 (SALSA)  
1 26411U 00041B   21088.39146366 -.00000028  00000-0  00000+0 0  9996
2 26411 133.1132 345.5549 6234344 195.2806   0.4725  0.44217080 22910
INTELSAT 9 (IS-9)       
1 26451U 00043A   21086.81855146 -.00000290  00000-0  00000+0 0  9991
2 26451   6.2781  64.1063 0002966 311.0902  54.9427  1.00273431 75726
CLUSTER II-FM5 (RUMBA)  
1 26463U 00045A   21088.38918928  .00000055  00000-0  00000-0 0  9997
2 26463 136.7549 345.4776 5803251 195.4287   0.5569  0.44217502 11770
CLUSTER II-FM8 (TANGO)  
1 26464U 00045B   21088.32243352  .00000099  00000-0  00000-0 0  9992
2 26464 132.5560 343.8555 4781138 190.2964   0.3717  0.44218052 11851
BRASILSAT B4            
1 26469U 00046A   21086.50359875 -.00000276  00000-0  00000-0 0  9992
2 26469   4.6227  76.4023 0002532 286.3379 295.6107  1.00272440 75835
ASTRA 2B                
1 26494U 00054A   21086.23399725  .00000114  00000-0  00000-0 0  9997
2 26494   5.1398  72.0436 0005289 298.1133 278.5770  1.00274650 27758
NSS-11 (AAP-1)          
1 26554U 00059A   21086.83936979  .00000017  00000-0  00000+0 0  9994
2 26554   0.0209  84.4978 0003000 275.0597 304.0809  1.00270959 75057
USA 153                 
1 26575U 00065A   21086.75928722 -.00000325  00000-0  00000+0 0  9995
2 26575   8.3584  48.3072 0002660 343.4881 201.3476  1.00275758 12487
AMC-6 (GE-6)            
1 26580U 00067A   21086.58581115  .00000097  00000-0  00000-0 0  9991
2 26580   0.0259  80.1931 0002810 281.8511 255.0639  1.00272769 74799
INTELSAT 12 (IS-12)     
1 26590U 00068A   21086.17110017  .00000008  00000-0  00000-0 0  9999
2 26590   3.5961  83.7208 0004851 316.6293 270.3037  1.00272201 32578
INTELSAT 1R (IS-1R)     
1 26608U 00072A   21086.76382348 -.00000143  00000-0  00000+0 0  9997
2 26608   3.3794  83.7146 0000625 170.4656   3.2941  1.00272098 74527
ANIK F1                 
1 26624U 00076A   21086.62502834 -.00000069  00000-0  00000-0 0  9996
2 26624   0.3242  98.8935 0006645 308.6951 253.4593  1.00271866 24017
ASTRA 2D                
1 26638U 00081A   21086.52863546  .00000060  00000-0  00000-0 0  9996
2 26638   6.3658  63.1005 0001790 296.5027  73.1281  1.00275125 33784
AMC-8 (GE-8)            
1 26639U 00081B   21086.70563713  .00000081  00000-0  00000+0 0  9992
2 26639   1.3413  93.1317 0002685 282.7646 288.4582  1.00272019 74145
NAVSTAR 50 (USA 156)    
1 26690U 01004A   21086.56473052  .00000053  00000-0  00000-0 0  9995
2 26690  53.6178 103.3971 0004016 293.6394 110.6522  1.91595427146995
ODIN                    
1 26702U 01007A   21086.55380260  .00000562  00000-0  40167-4 0  9996
2 26702  97.5427 104.5884 0011611  27.2723 332.9113 15.08376020 98883
USA 157 (MILSTAR-2 2)   
1 26715U 01009A   21086.58449549  .00000072  00000-0  00000-0 0  9995
2 26715   9.5932  29.2190 0003915 329.7324 257.1544  1.00433948 13826
EUTELSAT 133 WEST A     
1 26719U 01011A   21086.70607331  .00000072  00000-0  00000+0 0  9990
2 26719   2.6310  86.7024 0005211 283.3485 296.6234  1.00273015 73447
BSAT-2A                 
1 26720U 01011B   21086.60899906  .00000074  00000-0  00000-0 0  9995
2 26720   6.6873  61.7015 0002345 303.2959 267.4711  0.99176310 73053
INTELSAT 10 (IS-10)     
1 26766U 01019A   21086.60487964 -.00000216  00000-0  00000+0 0  9998
2 26766   4.5356  76.9358 0004714 309.3425  96.3105  1.00635792 72806
INTELSAT 901 (IS-901)   
1 26824U 01024A   21086.29637094 -.00000210  00000-0  00000-0 0  9990
2 26824   0.0205 155.8327 0001044 212.9248 255.3824  1.00270965  3843
ASTRA 2C                
1 26853U 01025A   21086.59371345  .00000132  00000-0  00000-0 0  9992
2 26853   3.4931  83.2031 0002990 282.0844  57.4052  1.00273863 25911
ICO F2                  
1 26857U 01026A   21084.27583809 -.00000026  00000-0  00000-0 0  9993
2 26857  44.9608 324.8875 0015770 312.0891  47.8243  3.92403070130776
USA 159 (DSP 21)        
1 26880U 01033A   21086.45003984 -.00000296  00000-0  00000-0 0  9999
2 26880  11.0259  28.5354 0001182 329.9729 299.4220  1.00266559 13831
INTELSAT 902 (IS-902)   
1 26900U 01039A   21086.81855146 -.00000289  00000-0  00000+0 0  9994
2 26900   1.3003  93.7350 0002917 284.8947  51.3952  1.00270707 71641
PCSAT (NO-44)           
1 26931U 01043C   21086.52203709  .00000002  00000-0  32478-4 0  9994
2 26931  67.0500 131.8859 0007398 266.0958  93.9298 14.30611470 17521
PROBA-1                 
1 26958U 01049B   21086.72936233 -.00000118  00000-0 -46472-5 0  9996
2 26958  97.7597  43.9470 0073672  35.4694 325.1395 14.95658553 57695
BIRD 2                  
1 26959U 01049C   21086.54578885  .00003128  00000-0  84062-4 0  9990
2 26959  97.8054 144.8162 0008440 158.3660 201.7942 15.38732745384383
TIMED                   
1 26998U 01055B   21086.73894886  .00000185  00000-0  24048-4 0  9991
2 26998  74.0708  89.2228 0000656 259.0551 101.0556 14.88284210 46687
MAROC-TUBSAT            
1 27004U 01056D   21086.62775343 -.00000038  00000-0  77439-5 0  9996
2 27004  99.5547 223.5898 0019884   7.0895   4.0606 13.70145469964959
COSMOS 2385             
1 27056U 01058B   21086.52138052  .00000009  00000-0 -11049-4 0  9996
2 27056  82.5429 359.7989 0004846 209.6028 150.4788 12.60512876885597
COSMOS 2386             
1 27057U 01058C   21086.49055699  .00000013  00000-0  16571-4 0  9997
2 27057  82.5500 355.4062 0001767  51.0558 309.0690 12.61558601886300
USA 164 (MILSTAR-2 3)   
1 27168U 02001A   21086.52095870  .00000100  00000-0  00000-0 0  9991
2 27168   9.0512  30.7859 0002252 325.2598  35.6240  1.00274782 13836
RHESSI                  
1 27370U 02004A   21086.52804392  .00005023  00000-0  15092-3 0  9995
2 27370  38.0318 243.8100 0010250 133.2084 226.9545 15.34451107 57805
ECHOSTAR 7              
1 27378U 02006A   21086.61850890 -.00000008  00000-0  00000+0 0  9997
2 27378   0.0054  95.3585 0001494 269.2221 284.5187  1.00270813 69939
INTELSAT 904 (IS-904)   
1 27380U 02007A   21086.79845615 -.00000220  00000-0  00000+0 0  9995
2 27380   2.1359  90.5009 0003520 281.8455  71.0247  1.00270676 69968
TDRS 9                  
1 27389U 02011A   21086.79200069 -.00000288  00000-0  00000+0 0  9991
2 27389   8.0809  64.8427 0027585 288.5551  54.8654  1.00268699 71313
JCSAT-2A                
1 27399U 02015A   21086.57584750 -.00000002  00000-0  00000-0 0  9999
2 27399   3.5692  83.0563 0008378 354.4627 162.4475  0.99027337 69766
ASTRA 3A                
1 27400U 02015B   21086.42809716 -.00000205  00000-0  00000-0 0  9993
2 27400   6.4825  61.9057 0001801 303.4191 247.0918  1.00271261 69599
NSS-7                   
1 27414U 02019A   21086.80028810 -.00000161  00000-0  00000+0 0  9992
2 27414   4.8732  74.7336 0002528 295.1315  83.6706  1.00271940 69433
AQUA                    
1 27424U 02022A   21086.87022150  .00000136  00000-0  40297-4 0  9993
2 27424  98.2028  29.3954 0001553 125.4498 268.8127 14.57112866  5199
DIRECTV 5 (TEMPO 1)     
1 27426U 02023A   21086.54528902 -.00000063  00000-0  00000-0 0  9990
2 27426   0.0160 130.5479 0003378 235.3979 265.4146  1.00272108 69035
INTELSAT 905 (IS-905)   
1 27438U 02027A   21086.79941574 -.00000191  00000-0  00000+0 0  9999
2 27438   1.9572  91.3236 0002906 279.6679  77.7291  1.00270244 68846
GALAXY 3C (G-3C)        
1 27445U 02030A   21086.56998528 -.00000158  00000-0  00000-0 0  9991
2 27445   0.0250 278.4798 0001808  52.0216 324.8689  1.00270827 27375
EUTELSAT 5 WEST A       
1 27460U 02035A   21086.80334135 -.00000049  00000-0  00000+0 0  9996
2 27460   1.2322  94.0724 0006236 270.5134 105.0546  1.00270957 68620
COSMOS 2390             
1 27464U 02036A   21086.78927097 -.00000005  00000-0 -10850-3 0  9994
2 27464  82.4800  97.5505 0026531 109.6674 250.7275 12.44575454850549
COSMOS 2391             
1 27465U 02036B   21086.49451715  .00000011  00000-0  55276-5 0  9990
2 27465  82.4795  95.0512 0027359 106.7135 253.6962 12.44896013850714
METEOSAT-8 (MSG-1)      
1 27509U 02040B   21086.52549497  .00000134  00000-0  00000-0 0  9999
2 27509   7.2262  52.8458 0001709 319.7469  43.3036  1.00278459 68135
INTELSAT 906 (IS-906)   
1 27513U 02041A   21086.53003123  .00000008  00000-0  00000-0 0  9997
2 27513   0.9648  95.6619 0003177 276.9200  67.5290  1.00271906 67892
HISPASAT 30W-4          
1 27528U 02044A   21086.70397965  .00000111  00000-0  00000+0 0  9999
2 27528   1.7492  91.3164 0005819 289.8265 274.6303  1.00269008 67819
INTEGRAL                
1 27540U 02048A   21082.80214507  .00000146  00000-0  00000-0 0  9993
2 27540  61.7731  91.0955 8996909 298.3407   1.4976  0.37575917 19468
TDRS 10                 
1 27566U 02055A   21086.65363663  .00000089  00000-0  00000-0 0  9990
2 27566   7.4027  52.2816 0011274 305.3409 251.8648  1.00276643 67108
NSS-6                   
1 27603U 02057A   21086.58226993  .00000101  00000-0  00000-0 0  9995
2 27603   0.4994  96.5841 0004263 269.5113 219.2372  1.00273111 66915
LATINSAT B              
1 27606U 02058B   21086.62335667  .00000049  00000-0  29072-4 0  9998
2 27606  64.5564 309.7663 0040587  71.4073 289.1430 14.72342685980920
SAUDISAT 1C (SO-50)     
1 27607U 02058C   21086.84577820  .00000084  00000-0  32442-4 0  9996
2 27607  64.5549 227.8879 0032333  53.5148 306.8926 14.75727907982675
